{"type": "FeatureCollection", "features": [ {"type": "Feature", "properties": {"norad_id": 30134, "name": "FENGYUN 1C DEB", "group": "fengyun-1c-debris", "lat": -73.58405114585908, "lon": 145.85883055128613, "alt_km": 846.1870343714991, "timestamp": "2025-12-03T20:47:58.498067+00:00", "meta": {"OBJECT_NAME": "FENGYUN 1C DEB", "OBJECT_ID": "1999-025SP", "EPOCH": "2025-12-03T01:09:45.990144", "MEAN_MOTION": 14.13320388, "ECCENTRICITY": 0.00185417, "INCLINATION": 98.6943, "RA_OF_ASC_NODE": 356.354, "ARG_OF_PERICENTER": 211.1582, "MEAN_ANOMALY": 204.044, "EPHEMERIS_TYPE": 0, "CLASSIFICATION_TYPE": "U", "NORAD_CAT_ID": 30134, "ELEMENT_SET_NO": 999, "REV_AT_EPOCH": 97109, "BSTAR": 0.00059695743, "MEAN_MOTION_DOT": 1.079e-05, "MEAN_MOTION_DDOT": 0}, "tle": {"line1": "1 30134U 99025SP  25337.04844896  .00001079  00000+0  59696-3 0  9993", "line2": "2 30134  98.6943 356.3540 0018541 211.1582 204.0440 14.13320388971090"}}, "geometry": {"type": "Point", "coordinates": [145.85883055128613, -73.58405114585908]}}, {"type": "Feature", "properties": {"norad_id": 30136, "name": "FENGYUN 1C DEB", "group": "fengyun-1c-debris", "lat": 54.799205618721885, "lon": 63.683171818808134, "alt_km": 823.1453530339959, "timestamp": "2025-12-03T20:47:58.498077+00:00", "meta": {"OBJECT_NAME": "FENGYUN 1C DEB", "OBJECT_ID": "1999-025SR", "EPOCH": "2025-12-02T05:15:04.555008", "MEAN_MOTION": 13.95304029, "ECCENTRICITY": 0.0129263, "INCLINATION": 98.5563, "RA_OF_ASC_NODE": 229.831, "ARG_OF_PERICENTER": 98.5456, "MEAN_ANOMALY": 32.2114, "EPHEMERIS_TYPE": 0, "CLASSIFICATION_TYPE": "U", "NORAD_CAT_ID": 30136, "ELEMENT_SET_NO": 999, "REV_AT_EPOCH": 95944, "BSTAR": 0.00046682, "MEAN_MOTION_DOT": 6.39e-06, "MEAN_MOTION_DDOT": 0}, "tle": {"line1": "1 30136U 99025SR  25336.21880272  .00000639  00000+0  46682-3 0  9993", "line2": "2 30136  98.5563 229.8310 0129263  98.5456  32.2114 13.95304029959446"}}, "geometry": {"type": "Point", "coordinates": [63.683171818808134, 54.799205618721885]}}, {"type": "Feature", "properties": {"norad_id": 30138, "name": "FENGYUN 1C DEB", "group": "fengyun-1c-debris", "lat": 34.5723014401639, "lon": -142.67983967847843, "alt_km": 809.1703959590432, "timestamp": "2025-12-03T20:47:58.498088+00:00", "meta": {"OBJECT_NAME": "FENGYUN 1C DEB", "OBJECT_ID": "1999-025ST", "EPOCH": "2025-12-03T10:03:34.928064", "MEAN_MOTION": 14.19974648, "ECCENTRICITY": 0.0020315, "INCLINATION": 98.7606, "RA_OF_ASC_NODE": 30.7771, "ARG_OF_PERICENTER": 163.8714, "MEAN_ANOMALY": 214.7996, "EPHEMERIS_TYPE": 0, "CLASSIFICATION_TYPE": "U", "NORAD_CAT_ID": 30138, "ELEMENT_SET_NO": 999, "REV_AT_EPOCH": 97269, "BSTAR": 0.0012551, "MEAN_MOTION_DOT": 2.63e-05, "MEAN_MOTION_DDOT": 0}, "tle": {"line1": "1 30138U 99025ST  25337.41915426  .00002630  00000+0  12551-2 0  9998", "line2": "2 30138  98.7606  30.7771 0020315 163.8714 214.7996 14.19974648972693"}}, "geometry": {"type": "Point", "coordinates": [-142.67983967847843, 34.5723014401639]}}, {"type": "Feature", "properties": {"norad_id": 30139, "name": "FENGYUN 1C DEB", "group": "fengyun-1c-debris", "lat": 33.40921171522879, "lon": 7.724788978005552, "alt_km": 973.2648007264925, "timestamp": "2025-12-03T20:47:58.498099+00:00", "meta": {"OBJECT_NAME": "FENGYUN 1C DEB", "OBJECT_ID": "1999-025SU", "EPOCH": "2025-11-30T13:42:33.077088", "MEAN_MOTION": 14.03581873, "ECCENTRICITY": 0.0131774, "INCLINATION": 98.3658, "RA_OF_ASC_NODE": 179.1214, "ARG_OF_PERICENTER": 324.9204, "MEAN_ANOMALY": 99.2292, "EPHEMERIS_TYPE": 0, "CLASSIFICATION_TYPE": "U", "NORAD_CAT_ID": 30139, "ELEMENT_SET_NO": 999, "REV_AT_EPOCH": 96079, "BSTAR": 0.0011579, "MEAN_MOTION_DOT": 1.922e-05, "MEAN_MOTION_DDOT": 0}, "tle": {"line1": "1 30139U 99025SU  25334.57121617  .00001922  00000+0  11579-2 0  9996", "line2": "2 30139  98.3658 179.1214 0131774 324.9204  99.2292 14.03581873960793"}}, "geometry": {"type": "Point", "coordinates": [7.724788978005552, 33.40921171522879]}}, {"type": "Feature", "properties": {"norad_id": 30140, "name": "FENGYUN 1C DEB", "group": "fengyun-1c-debris", "lat": -61.819989300205435, "lon": 57.61336113484982, "alt_km": 807.5416784144036, "timestamp": "2025-12-03T20:47:58.498109+00:00", "meta": {"OBJECT_NAME": "FENGYUN 1C DEB", "OBJECT_ID": "1999-025SV", "EPOCH": "2025-12-02T22:15:25.230240", "MEAN_MOTION": 14.20661365, "ECCENTRICITY": 0.00405153, "INCLINATION": 98.8281, "RA_OF_ASC_NODE": 39.8128, "ARG_OF_PERICENTER": 338.7355, "MEAN_ANOMALY": 197.3654, "EPHEMERIS_TYPE": 0, "CLASSIFICATION_TYPE": "U", "NORAD_CAT_ID": 30140, "ELEMENT_SET_NO": 999, "REV_AT_EPOCH": 97004, "BSTAR": 0.0017220317, "MEAN_MOTION_DOT": 3.696e-05, "MEAN_MOTION_DDOT": 0}, "tle": {"line1": "1 30140U 99025SV  25336.92737535  .00003696  00000+0  17220-2 0  9990", "line2": "2 30140  98.8281  39.8128 0040515 338.7355 197.3654 14.20661365970045"}}, "geometry": {"type": "Point", "coordinates": [57.61336113484982, -61.819989300205435]}}, {"type": "Feature", "properties": {"norad_id": 30141, "name": "FENGYUN 1C DEB", "group": "fengyun-1c-debris", "lat": 80.3548580285629, "lon": 148.06406169476202, "alt_km": 703.0550633727771, "timestamp": "2025-12-03T20:47:58.498120+00:00", "meta": {"OBJECT_NAME": "FENGYUN 1C DEB", "OBJECT_ID": "1999-025SW", "EPOCH": "2025-12-03T05:28:46.879968", "MEAN_MOTION": 14.51224794, "ECCENTRICITY": 0.0018923, "INCLINATION": 99.0134, "RA_OF_ASC_NODE": 258.3161, "ARG_OF_PERICENTER": 60.9884, "MEAN_ANOMALY": 299.3202, "EPHEMERIS_TYPE": 0, "CLASSIFICATION_TYPE": "U", "NORAD_CAT_ID": 30141, "ELEMENT_SET_NO": 999, "REV_AT_EPOCH": 98106, "BSTAR": 0.0034834, "MEAN_MOTION_DOT": 0.00013851, "MEAN_MOTION_DDOT": 0}, "tle": {"line1": "1 30141U 99025SW  25337.22832037  .00013851  00000+0  34834-2 0  9992", "line2": "2 30141  99.0134 258.3161 0018923  60.9884 299.3202 14.51224794981061"}}, "geometry": {"type": "Point", "coordinates": [148.06406169476202, 80.3548580285629]}}, {"type": "Feature", "properties": {"norad_id": 30142, "name": "FENGYUN 1C DEB", "group": "fengyun-1c-debris", "lat": 8.256327318140618, "lon": -125.15632833465115, "alt_km": 929.0407248613546, "timestamp": "2025-12-03T20:47:58.498130+00:00", "meta": {"OBJECT_NAME": "FENGYUN 1C DEB", "OBJECT_ID": "1999-025SX", "EPOCH": "2025-12-03T11:28:19.022016", "MEAN_MOTION": 14.1039561, "ECCENTRICITY": 0.0100794, "INCLINATION": 99.1301, "RA_OF_ASC_NODE": 53.112, "ARG_OF_PERICENTER": 334.5483, "MEAN_ANOMALY": 25.0742, "EPHEMERIS_TYPE": 0, "CLASSIFICATION_TYPE": "U", "NORAD_CAT_ID": 30142, "ELEMENT_SET_NO": 999, "REV_AT_EPOCH": 96168, "BSTAR": 0.0020773, "MEAN_MOTION_DOT": 3.825e-05, "MEAN_MOTION_DDOT": 0}, "tle": {"line1": "1 30142U 99025SX  25337.47799794  .00003825  00000+0  20773-2 0  9999", "line2": "2 30142  99.1301  53.1120 0100794 334.5483  25.0742 14.10395610961688"}}, "geometry": {"type": "Point", "coordinates": [-125.15632833465115, 8.256327318140618]}}, {"type": "Feature", "properties": {"norad_id": 30143, "name": "FENGYUN 1C DEB", "group": "fengyun-1c-debris", "lat": -4.8872208597359075, "lon": 162.2671290564485, "alt_km": 830.00137747194, "timestamp": "2025-12-03T20:47:58.498140+00:00", "meta": {"OBJECT_NAME": "FENGYUN 1C DEB", "OBJECT_ID": "1999-025SY", "EPOCH": "2025-12-03T10:41:18.333312", "MEAN_MOTION": 14.02525291, "ECCENTRICITY": 0.0104031, "INCLINATION": 98.7341, "RA_OF_ASC_NODE": 161.11, "ARG_OF_PERICENTER": 316.766, "MEAN_ANOMALY": 71.6555, "EPHEMERIS_TYPE": 0, "CLASSIFICATION_TYPE": "U", "NORAD_CAT_ID": 30143, "ELEMENT_SET_NO": 999, "REV_AT_EPOCH": 96089, "BSTAR": 0.0017948, "MEAN_MOTION_DOT": 2.855e-05, "MEAN_MOTION_DDOT": 0}, "tle": {"line1": "1 30143U 99025SY  25337.44535108  .00002855  00000+0  17948-2 0  9996", "line2": "2 30143  98.7341 161.1100 0104031 316.7660  71.6555 14.02525291960895"}}, "geometry": {"type": "Point", "coordinates": [162.2671290564485, -4.8872208597359075]}}, {"type": "Feature", "properties": {"norad_id": 30144, "name": "FENGYUN 1C DEB", "group": "fengyun-1c-debris", "lat": 27.051879905706627, "lon": -33.74868286379547, "alt_km": 892.2527650865786, "timestamp": "2025-12-03T20:47:58.498151+00:00", "meta": {"OBJECT_NAME": "FENGYUN 1C DEB", "OBJECT_ID": "1999-025SZ", "EPOCH": "2025-12-02T12:29:39.543648", "MEAN_MOTION": 13.91793061, "ECCENTRICITY": 0.01260725, "INCLINATION": 99.0097, "RA_OF_ASC_NODE": 329.5909, "ARG_OF_PERICENTER": 318.8143, "MEAN_ANOMALY": 166.6543, "EPHEMERIS_TYPE": 0, "CLASSIFICATION_TYPE": "U", "NORAD_CAT_ID": 30144, "ELEMENT_SET_NO": 999, "REV_AT_EPOCH": 95698, "BSTAR": 0.00077423743, "MEAN_MOTION_DOT": 1.007e-05, "MEAN_MOTION_DDOT": 0}, "tle": {"line1": "1 30144U 99025SZ  25336.52059657  .00001007  00000+0  77424-3 0  9999", "line2": "2 30144  99.0097 329.5909 0126072 318.8143 166.6543 13.91793061956989"}}, "geometry": {"type": "Point", "coordinates": [-33.74868286379547, 27.051879905706627]}}, {"type": "Feature", "properties": {"norad_id": 30145, "name": "FENGYUN 1C DEB", "group": "fengyun-1c-debris", "lat": 64.52049058185898, "lon": -72.83639545206715, "alt_km": 805.1122240808172, "timestamp": "2025-12-03T20:47:58.498162+00:00", "meta": {"OBJECT_NAME": "FENGYUN 1C DEB", "OBJECT_ID": "1999-025TA", "EPOCH": "2025-12-03T06:48:09.209952", "MEAN_MOTION": 14.13837143, "ECCENTRICITY": 0.0092638, "INCLINATION": 99.2709, "RA_OF_ASC_NODE": 86.5139, "ARG_OF_PERICENTER": 174.5755, "MEAN_ANOMALY": 213.3233, "EPHEMERIS_TYPE": 0, "CLASSIFICATION_TYPE": "U", "NORAD_CAT_ID": 30145, "ELEMENT_SET_NO": 999, "REV_AT_EPOCH": 96062, "BSTAR": 0.0043636, "MEAN_MOTION_DOT": 8.573e-05, "MEAN_MOTION_DDOT": 0}, "tle": {"line1": "1 30145U 99025TA  25337.28343993  .00008573  00000+0  43636-2 0  9995", "line2": "2 30145  99.2709  86.5139 0092638 174.5755 213.3233 14.13837143960620"}}, "geometry": {"type": "Point", "coordinates": [-72.83639545206715, 64.52049058185898]}}]}